VSP RF A1               
1 59135U 24043AP  26066.03073316  .00000577  00000+0  25199-4 0  9997
2 59135  97.5247 201.5379 0009431 234.6315 125.4042 15.26179596111403
STARLINK-31410          
1 59179U 24045B   26068.45320963 -.00000150  00000+0  40978-5 0  9999
2 59179  43.0060  94.0186 0001537 287.7570  72.3113 15.27577428113129
